CCSDS_OMM_VERS = 2.0
CREATION_DATE  = 
ORIGINATOR     = 

OBJECT_NAME    = OKEAN-3
OBJECT_ID      = 1991-039A
CENTER_NAME    = EARTH
REF_FRAME      = TEME
TIME_SYSTEM    = UTC
MEAN_ELEMENT_THEORY = SGP/SGP4

EPOCH          = 2025-11-10T19:30:38.858400
MEAN_MOTION    = 15.03793208
ECCENTRICITY   = .00147574
INCLINATION    = 82.5165
RA_OF_ASC_NODE = 91.9407
ARG_OF_PERICENTER = 19.6565
MEAN_ANOMALY   = 340.5227

EPHEMERIS_TYPE = 0
CLASSIFICATION_TYPE = U
NORAD_CAT_ID   = 21397
ELEMENT_SET_NO = 999
REV_AT_EPOCH   = 84716
BSTAR          = .40394507E-3
MEAN_MOTION_DOT = .5589E-4
MEAN_MOTION_DDOT = 0

CCSDS_OMM_VERS = 2.0
CREATION_DATE  = 
ORIGINATOR     = 

OBJECT_NAME    = COSMOS 2151
OBJECT_ID      = 1991-042A
CENTER_NAME    = EARTH
REF_FRAME      = TEME
TIME_SYSTEM    = UTC
MEAN_ELEMENT_THEORY = SGP/SGP4

EPOCH          = 2025-11-11T06:17:18.015648
MEAN_MOTION    = 14.99515464
ECCENTRICITY   = .00141999
INCLINATION    = 82.4985
RA_OF_ASC_NODE = 197.8299
ARG_OF_PERICENTER = 97.5968
MEAN_ANOMALY   = 262.6869

EPHEMERIS_TYPE = 0
CLASSIFICATION_TYPE = U
NORAD_CAT_ID   = 21422
ELEMENT_SET_NO = 999
REV_AT_EPOCH   = 84544
BSTAR          = .22904468E-3
MEAN_MOTION_DOT = .2843E-4
MEAN_MOTION_DDOT = 0

CCSDS_OMM_VERS = 2.0
CREATION_DATE  = 
ORIGINATOR     = 

OBJECT_NAME    = SL-14 R/B
OBJECT_ID      = 1991-042B
CENTER_NAME    = EARTH
REF_FRAME      = TEME
TIME_SYSTEM    = UTC
MEAN_ELEMENT_THEORY = SGP/SGP4

EPOCH          = 2025-11-11T07:30:07.760448
MEAN_MOTION    = 14.81695513
ECCENTRICITY   = .00154824
INCLINATION    = 82.4921
RA_OF_ASC_NODE = 331.1982
ARG_OF_PERICENTER = 270.2560
MEAN_ANOMALY   = 89.6880

EPHEMERIS_TYPE = 0
CLASSIFICATION_TYPE = U
NORAD_CAT_ID   = 21423
ELEMENT_SET_NO = 999
REV_AT_EPOCH   = 83554
BSTAR          = .92934323E-4
MEAN_MOTION_DOT = .756E-5
MEAN_MOTION_DDOT = 0

CCSDS_OMM_VERS = 2.0
CREATION_DATE  = 
ORIGINATOR     = 

OBJECT_NAME    = ERS-1
OBJECT_ID      = 1991-050A
CENTER_NAME    = EARTH
REF_FRAME      = TEME
TIME_SYSTEM    = UTC
MEAN_ELEMENT_THEORY = SGP/SGP4

EPOCH          = 2025-11-11T00:54:13.327200
MEAN_MOTION    = 14.39326995
ECCENTRICITY   = .00317795
INCLINATION    = 98.7924
RA_OF_ASC_NODE = 325.2968
ARG_OF_PERICENTER = 192.3831
MEAN_ANOMALY   = 167.6579

EPHEMERIS_TYPE = 0
CLASSIFICATION_TYPE = U
NORAD_CAT_ID   = 21574
ELEMENT_SET_NO = 999
REV_AT_EPOCH   = 79866
BSTAR          = .18448005E-3
MEAN_MOTION_DOT = .53E-5
MEAN_MOTION_DDOT = 0

CCSDS_OMM_VERS = 2.0
CREATION_DATE  = 
ORIGINATOR     = 

OBJECT_NAME    = ARIANE 40 R/B
OBJECT_ID      = 1991-050F
CENTER_NAME    = EARTH
REF_FRAME      = TEME
TIME_SYSTEM    = UTC
MEAN_ELEMENT_THEORY = SGP/SGP4

EPOCH          = 2025-11-11T03:54:16.938720
MEAN_MOTION    = 14.42771332
ECCENTRICITY   = .00042626
INCLINATION    = 98.2212
RA_OF_ASC_NODE = 6.7262
ARG_OF_PERICENTER = 79.6632
MEAN_ANOMALY   = 280.5039

EPHEMERIS_TYPE = 0
CLASSIFICATION_TYPE = U
NORAD_CAT_ID   = 21610
ELEMENT_SET_NO = 999
REV_AT_EPOCH   = 80190
BSTAR          = .18906185E-3
MEAN_MOTION_DOT = .588E-5
MEAN_MOTION_DDOT = 0

CCSDS_OMM_VERS = 2.0
CREATION_DATE  = 
ORIGINATOR     = 

OBJECT_NAME    = INTERCOSMOS 25
OBJECT_ID      = 1991-086A
CENTER_NAME    = EARTH
REF_FRAME      = TEME
TIME_SYSTEM    = UTC
MEAN_ELEMENT_THEORY = SGP/SGP4

EPOCH          = 2025-11-11T06:16:36.139296
MEAN_MOTION    = 12.11585824
ECCENTRICITY   = .14884448
INCLINATION    = 82.6081
RA_OF_ASC_NODE = 21.6029
ARG_OF_PERICENTER = 12.2480
MEAN_ANOMALY   = 351.0940

EPHEMERIS_TYPE = 0
CLASSIFICATION_TYPE = U
NORAD_CAT_ID   = 21819
ELEMENT_SET_NO = 999
REV_AT_EPOCH   = 48234
BSTAR          = .32342271E-3
MEAN_MOTION_DOT = .1661E-4
MEAN_MOTION_DDOT = 0

CCSDS_OMM_VERS = 2.0
CREATION_DATE  = 
ORIGINATOR     = 

OBJECT_NAME    = SL-8 R/B
OBJECT_ID      = 1992-008B
CENTER_NAME    = EARTH
REF_FRAME      = TEME
TIME_SYSTEM    = UTC
MEAN_ELEMENT_THEORY = SGP/SGP4

EPOCH          = 2025-11-11T06:24:55.236672
MEAN_MOTION    = 13.75949146
ECCENTRICITY   = .00360943
INCLINATION    = 82.9286
RA_OF_ASC_NODE = 355.8564
ARG_OF_PERICENTER = 105.0733
MEAN_ANOMALY   = 326.3585

EPHEMERIS_TYPE = 0
CLASSIFICATION_TYPE = U
NORAD_CAT_ID   = 21876
ELEMENT_SET_NO = 999
REV_AT_EPOCH   = 69313
BSTAR          = .13256104E-3
MEAN_MOTION_DOT = .145E-5
MEAN_MOTION_DDOT = 0

CCSDS_OMM_VERS = 2.0
CREATION_DATE  = 
ORIGINATOR     = 

OBJECT_NAME    = SL-8 R/B
OBJECT_ID      = 1992-020B
CENTER_NAME    = EARTH
REF_FRAME      = TEME
TIME_SYSTEM    = UTC
MEAN_ELEMENT_THEORY = SGP/SGP4

EPOCH          = 2025-11-11T06:46:01.583328
MEAN_MOTION    = 13.75521150
ECCENTRICITY   = .0027623
INCLINATION    = 82.9309
RA_OF_ASC_NODE = 241.6749
ARG_OF_PERICENTER = 268.7705
MEAN_ANOMALY   = 203.7313

EPHEMERIS_TYPE = 0
CLASSIFICATION_TYPE = U
NORAD_CAT_ID   = 21938
ELEMENT_SET_NO = 999
REV_AT_EPOCH   = 68485
BSTAR          = .92837319E-4
MEAN_MOTION_DOT = .104E-5
MEAN_MOTION_DDOT = 0

CCSDS_OMM_VERS = 2.0
CREATION_DATE  = 
ORIGINATOR     = 

OBJECT_NAME    = USA 81
OBJECT_ID      = 1992-023A
CENTER_NAME    = EARTH
REF_FRAME      = TEME
TIME_SYSTEM    = UTC
MEAN_ELEMENT_THEORY = SGP/SGP4

EPOCH          = 2025-11-11T04:16:03.749088
MEAN_MOTION    = 14.32309661
ECCENTRICITY   = .00026578
INCLINATION    = 85.0112
RA_OF_ASC_NODE = 199.7742
ARG_OF_PERICENTER = 77.3898
MEAN_ANOMALY   = 282.7592

EPHEMERIS_TYPE = 0
CLASSIFICATION_TYPE = U
NORAD_CAT_ID   = 21949
ELEMENT_SET_NO = 999
REV_AT_EPOCH   = 7782
BSTAR          = .12030987E-3
MEAN_MOTION_DOT = .344E-5
MEAN_MOTION_DDOT = 0

CCSDS_OMM_VERS = 2.0
CREATION_DATE  = 
ORIGINATOR     = 

OBJECT_NAME    = COSMOS 2219
OBJECT_ID      = 1992-076A
CENTER_NAME    = EARTH
REF_FRAME      = TEME
TIME_SYSTEM    = UTC
MEAN_ELEMENT_THEORY = SGP/SGP4

EPOCH          = 2025-11-11T05:53:44.949696
MEAN_MOTION    = 14.14065408
ECCENTRICITY   = .00175536
INCLINATION    = 71.0608
RA_OF_ASC_NODE = 265.6641
ARG_OF_PERICENTER = 13.5104
MEAN_ANOMALY   = 346.6485

EPHEMERIS_TYPE = 0
CLASSIFICATION_TYPE = U
NORAD_CAT_ID   = 22219
ELEMENT_SET_NO = 999
REV_AT_EPOCH   = 70163
BSTAR          = .13541107E-3
MEAN_MOTION_DOT = .211E-5
MEAN_MOTION_DDOT = 0

CCSDS_OMM_VERS = 2.0
CREATION_DATE  = 
ORIGINATOR     = 

OBJECT_NAME    = SL-16 R/B
OBJECT_ID      = 1992-076B
CENTER_NAME    = EARTH
REF_FRAME      = TEME
TIME_SYSTEM    = UTC
MEAN_ELEMENT_THEORY = SGP/SGP4

EPOCH          = 2025-11-11T02:38:18.778848
MEAN_MOTION    = 14.16835172
ECCENTRICITY   = .00152195
INCLINATION    = 70.9998
RA_OF_ASC_NODE = 78.1556
ARG_OF_PERICENTER = 275.2681
MEAN_ANOMALY   = 257.5673

EPHEMERIS_TYPE = 0
CLASSIFICATION_TYPE = U
NORAD_CAT_ID   = 22220
ELEMENT_SET_NO = 999
REV_AT_EPOCH   = 70503
BSTAR          = .46374026E-4
MEAN_MOTION_DOT = .45E-6
MEAN_MOTION_DDOT = 0

CCSDS_OMM_VERS = 2.0
CREATION_DATE  = 
ORIGINATOR     = 

OBJECT_NAME    = COSMOS 2221
OBJECT_ID      = 1992-080A
CENTER_NAME    = EARTH
REF_FRAME      = TEME
TIME_SYSTEM    = UTC
MEAN_ELEMENT_THEORY = SGP/SGP4

EPOCH          = 2025-11-11T07:22:32.810880
MEAN_MOTION    = 14.95575482
ECCENTRICITY   = .00135655
INCLINATION    = 82.5064
RA_OF_ASC_NODE = 32.4017
ARG_OF_PERICENTER = 226.0398
MEAN_ANOMALY   = 133.9705

EPHEMERIS_TYPE = 0
CLASSIFICATION_TYPE = U
NORAD_CAT_ID   = 22236
ELEMENT_SET_NO = 999
REV_AT_EPOCH   = 76309
BSTAR          = .34324807E-3
MEAN_MOTION_DOT = .3838E-4
MEAN_MOTION_DDOT = 0

