OKEAN-3                 
1 21397U 91039A   25314.81294975  .00005589  00000+0  40395-3 0  9994
2 21397  82.5165  91.9407 0014757  19.6565 340.5227 15.03793208847164
COSMOS 2151             
1 21422U 91042A   25315.26201407  .00002843  00000+0  22904-3 0  9991
2 21422  82.4985 197.8299 0014199  97.5968 262.6869 14.99515464845444
SL-14 R/B               
1 21423U 91042B   25315.31258982  .00000756  00000+0  92934-4 0  9990
2 21423  82.4921 331.1982 0015482 270.2560  89.6880 14.81695513835546
ERS-1                   
1 21574U 91050A   25315.03765425  .00000530  00000+0  18448-3 0  9997
2 21574  98.7924 325.2968 0031779 192.3831 167.6579 14.39326995798667
ARIANE 40 R/B           
1 21610U 91050F   25315.16269605  .00000588  00000+0  18906-3 0  9993
2 21610  98.2212   6.7262 0004262  79.6632 280.5039 14.42771332801905
INTERCOSMOS 25          
1 21819U 91086A   25315.26152939  .00001661  00000+0  32342-3 0  9998
2 21819  82.6081  21.6029 1488444  12.2480 351.0940 12.11585824482348
SL-8 R/B                
1 21876U 92008B   25315.26730598  .00000145  00000+0  13256-3 0  9998
2 21876  82.9286 355.8564 0036094 105.0733 326.3585 13.75949146693131
SL-8 R/B                
1 21938U 92020B   25315.28196277  .00000104  00000+0  92837-4 0  9991
2 21938  82.9309 241.6749 0027623 268.7705 203.7313 13.75521150684854
USA 81                  
1 21949U 92023A   25315.17782117  .00000344  00000+0  12031-3 0  9991
2 21949  85.0112 199.7742 0002657  77.3898 282.7592 14.32309661 77829
COSMOS 2219             
1 22219U 92076A   25315.24565914  .00000211  00000+0  13541-3 0  9992
2 22219  71.0608 265.6641 0017553  13.5104 346.6485 14.14065408701631
SL-16 R/B               
1 22220U 92076B   25315.10993957  .00000045  00000+0  46374-4 0  9997
2 22220  70.9998  78.1556 0015219 275.2681 257.5673 14.16835172705031
COSMOS 2221             
1 22236U 92080A   25315.30732420  .00003838  00000+0  34325-3 0  9992
2 22236  82.5064  32.4017 0013565 226.0398 133.9705 14.95575482763092
